STARLINK-31226          
1 58858U 24019F   25310.78156510  .00003887  00000+0  15060-3 0  9994
2 58858  43.0003 223.1792 0000167 158.9231 201.1627 15.27600238100289
STARLINK-31197          
1 58859U 24019G   25310.79313677  .00002190  00000+0  89087-4 0  9992
2 58859  42.9996 223.2658 0000580 262.9390  97.1395 15.27580990100289
STARLINK-31213          
1 58860U 24019H   25310.76743051  .00001801  00000+0  74915-4 0  9996
2 58860  43.0018 223.0732 0000966 278.3342  81.7400 15.27588214100288
STARLINK-31199          
1 58861U 24019J   25310.76357231  .00003328  00000+0  13037-3 0  9991
2 58861  43.0009 223.0435 0001368 249.4218 110.6487 15.27589855100286
STARLINK-31200          
1 58862U 24019K   25310.76486243  .00003392  00000+0  13271-3 0  9999
2 58862  43.0053 223.0558 0001728 270.4960  89.5694 15.27592241100287
STARLINK-31149          
1 58863U 24019L   25310.80327171  .00000605  00000+0  31516-4 0  9996
2 58863  42.9994 222.4868 0000667 247.2454 112.8327 15.27574486100293
STARLINK-31242          
1 58864U 24019M   25310.77128387  .00008238  00000+0  30834-3 0  9992
2 58864  42.9991 223.1011 0000978 252.5804 107.4940 15.27603119100288
STARLINK-31223          
1 58865U 24019N   25310.77257016  .00001755  00000+0  73284-4 0  9999
2 58865  43.0015 223.1168 0002073 282.3812  77.6807 15.27588468100266
STARLINK-31219          
1 58866U 24019P   25310.74815897  .00008796  00000+0  32855-3 0  9994
2 58866  43.0020 222.9344 0001655 273.8192  86.2471 15.27603217100260
STARLINK-31198          
1 58867U 24019Q   25310.75715100  .00003752  00000+0  14576-3 0  9999
2 58867  43.0076 222.9771 0002166 251.4448 108.6168 15.27589982100264
STARLINK-31196          
1 58868U 24019R   25310.79699390  .00002264  00000+0  91803-4 0  9992
2 58868  43.0022 223.2925 0001353 278.0761  81.9937 15.27572983100261
STARLINK-31203          
1 58869U 24019S   25310.76020583  .00006039  00000+0  22871-3 0  9994
2 58869  42.9975 219.5232 0000711 180.5125 179.5726 15.27592581100327
STARLINK-31201          
1 58870U 24019T   25310.74045672  .00002786  00000+0  11072-3 0  9996
2 58870  43.0045 222.8740 0000784 267.7701  92.3061 15.27574796100263
STARLINK-31214          
1 58871U 24019U   25310.75329916  .00003346  00000+0  13101-3 0  9992
2 58871  43.0022 222.9578 0000941 276.8586  83.2159 15.27589644100261
STARLINK-31215          
1 58872U 24019V   25310.75586162  .00003557  00000+0  13869-3 0  9996
2 58872  43.0015 222.9884 0000672 245.5495 114.5286 15.27589643100265
STARLINK-31177          
1 58873U 24019W   25310.75071929  .00003758  00000+0  14589-3 0  9990
2 58873  43.0033 222.9467 0000840 285.7756  74.3003 15.27605167100288
STARLINK-30945          
1 58874U 24019X   25310.78413385  .00002173  00000+0  88436-4 0  9993
2 58874  43.0047 223.1863 0000722 277.2357  82.8413 15.27587860100287
