[{"OBJECT_NAME":"STARLINK-31226","OBJECT_ID":"2024-019F","EPOCH":"2025-11-06T18:45:27.224640","MEAN_MOTION":15.27600238,"ECCENTRICITY":1.67e-5,"INCLINATION":43.0003,"RA_OF_ASC_NODE":223.1792,"ARG_OF_PERICENTER":158.9231,"MEAN_ANOMALY":201.1627,"EPHEMERIS_TYPE":0,"CLASSIFICATION_TYPE":"U","NORAD_CAT_ID":58858,"ELEMENT_SET_NO":999,"REV_AT_EPOCH":10028,"BSTAR":0.0001506,"MEAN_MOTION_DOT":3.887e-5,"MEAN_MOTION_DDOT":0},{"OBJECT_NAME":"STARLINK-31197","OBJECT_ID":"2024-019G","EPOCH":"2025-11-06T19:02:07.016928","MEAN_MOTION":15.2758099,"ECCENTRICITY":5.8e-5,"INCLINATION":42.9996,"RA_OF_ASC_NODE":223.2658,"ARG_OF_PERICENTER":262.939,"MEAN_ANOMALY":97.1395,"EPHEMERIS_TYPE":0,"CLASSIFICATION_TYPE":"U","NORAD_CAT_ID":58859,"ELEMENT_SET_NO":999,"REV_AT_EPOCH":10028,"BSTAR":8.9087e-5,"MEAN_MOTION_DOT":2.19e-5,"MEAN_MOTION_DDOT":0},{"OBJECT_NAME":"STARLINK-31213","OBJECT_ID":"2024-019H","EPOCH":"2025-11-06T18:25:05.996064","MEAN_MOTION":15.27588214,"ECCENTRICITY":9.66e-5,"INCLINATION":43.0018,"RA_OF_ASC_NODE":223.0732,"ARG_OF_PERICENTER":278.3342,"MEAN_ANOMALY":81.74,"EPHEMERIS_TYPE":0,"CLASSIFICATION_TYPE":"U","NORAD_CAT_ID":58860,"ELEMENT_SET_NO":999,"REV_AT_EPOCH":10028,"BSTAR":7.4915e-5,"MEAN_MOTION_DOT":1.801e-5,"MEAN_MOTION_DDOT":0},{"OBJECT_NAME":"STARLINK-31199","OBJECT_ID":"2024-019J","EPOCH":"2025-11-06T18:19:32.647584","MEAN_MOTION":15.27589855,"ECCENTRICITY":0.0001368,"INCLINATION":43.0009,"RA_OF_ASC_NODE":223.0435,"ARG_OF_PERICENTER":249.4218,"MEAN_ANOMALY":110.6487,"EPHEMERIS_TYPE":0,"CLASSIFICATION_TYPE":"U","NORAD_CAT_ID":58861,"ELEMENT_SET_NO":999,"REV_AT_EPOCH":10028,"BSTAR":0.00013037,"MEAN_MOTION_DOT":3.328e-5,"MEAN_MOTION_DDOT":0},{"OBJECT_NAME":"STARLINK-31200","OBJECT_ID":"2024-019K","EPOCH":"2025-11-06T18:21:24.113952","MEAN_MOTION":15.27592241,"ECCENTRICITY":0.0001728,"INCLINATION":43.0053,"RA_OF_ASC_NODE":223.0558,"ARG_OF_PERICENTER":270.496,"MEAN_ANOMALY":89.5694,"EPHEMERIS_TYPE":0,"CLASSIFICATION_TYPE":"U","NORAD_CAT_ID":58862,"ELEMENT_SET_NO":999,"REV_AT_EPOCH":10028,"BSTAR":0.00013271,"MEAN_MOTION_DOT":3.392e-5,"MEAN_MOTION_DDOT":0},{"OBJECT_NAME":"STARLINK-31149","OBJECT_ID":"2024-019L","EPOCH":"2025-11-06T19:16:42.675744","MEAN_MOTION":15.27574486,"ECCENTRICITY":6.67e-5,"INCLINATION":42.9994,"RA_OF_ASC_NODE":222.4868,"ARG_OF_PERICENTER":247.2454,"MEAN_ANOMALY":112.8327,"EPHEMERIS_TYPE":0,"CLASSIFICATION_TYPE":"U","NORAD_CAT_ID":58863,"ELEMENT_SET_NO":999,"REV_AT_EPOCH":10029,"BSTAR":3.1516e-5,"MEAN_MOTION_DOT":6.05e-6,"MEAN_MOTION_DDOT":0},{"OBJECT_NAME":"STARLINK-31242","OBJECT_ID":"2024-019M","EPOCH":"2025-11-06T18:30:38.926368","MEAN_MOTION":15.27603119,"ECCENTRICITY":9.78e-5,"INCLINATION":42.9991,"RA_OF_ASC_NODE":223.1011,"ARG_OF_PERICENTER":252.5804,"MEAN_ANOMALY":107.494,"EPHEMERIS_TYPE":0,"CLASSIFICATION_TYPE":"U","NORAD_CAT_ID":58864,"ELEMENT_SET_NO":999,"REV_AT_EPOCH":10028,"BSTAR":0.00030834,"MEAN_MOTION_DOT":8.238e-5,"MEAN_MOTION_DDOT":0},{"OBJECT_NAME":"STARLINK-31223","OBJECT_ID":"2024-019N","EPOCH":"2025-11-06T18:32:30.061824","MEAN_MOTION":15.27588468,"ECCENTRICITY":0.0002073,"INCLINATION":43.0015,"RA_OF_ASC_NODE":223.1168,"ARG_OF_PERICENTER":282.3812,"MEAN_ANOMALY":77.6807,"EPHEMERIS_TYPE":0,"CLASSIFICATION_TYPE":"U","NORAD_CAT_ID":58865,"ELEMENT_SET_NO":999,"REV_AT_EPOCH":10026,"BSTAR":7.3284e-5,"MEAN_MOTION_DOT":1.755e-5,"MEAN_MOTION_DDOT":0},{"OBJECT_NAME":"STARLINK-31219","OBJECT_ID":"2024-019P","EPOCH":"2025-11-06T17:57:20.935008","MEAN_MOTION":15.27603217,"ECCENTRICITY":0.0001655,"INCLINATION":43.002,"RA_OF_ASC_NODE":222.9344,"ARG_OF_PERICENTER":273.8192,"MEAN_ANOMALY":86.2471,"EPHEMERIS_TYPE":0,"CLASSIFICATION_TYPE":"U","NORAD_CAT_ID":58866,"ELEMENT_SET_NO":999,"REV_AT_EPOCH":10026,"BSTAR":0.00032855,"MEAN_MOTION_DOT":8.796e-5,"MEAN_MOTION_DDOT":0},{"OBJECT_NAME":"STARLINK-31198","OBJECT_ID":"2024-019Q","EPOCH":"2025-11-06T18:10:17.846400","MEAN_MOTION":15.27589982,"ECCENTRICITY":0.0002166,"INCLINATION":43.0076,"RA_OF_ASC_NODE":222.9771,"ARG_OF_PERICENTER":251.4448,"MEAN_ANOMALY":108.6168,"EPHEMERIS_TYPE":0,"CLASSIFICATION_TYPE":"U","NORAD_CAT_ID":58867,"ELEMENT_SET_NO":999,"REV_AT_EPOCH":10026,"BSTAR":0.00014576,"MEAN_MOTION_DOT":3.752e-5,"MEAN_MOTION_DDOT":0},{"OBJECT_NAME":"STARLINK-31196","OBJECT_ID":"2024-019R","EPOCH":"2025-11-06T19:07:40.272960","MEAN_MOTION":15.27572983,"ECCENTRICITY":0.0001353,"INCLINATION":43.0022,"RA_OF_ASC_NODE":223.2925,"ARG_OF_PERICENTER":278.0761,"MEAN_ANOMALY":81.9937,"EPHEMERIS_TYPE":0,"CLASSIFICATION_TYPE":"U","NORAD_CAT_ID":58868,"ELEMENT_SET_NO":999,"REV_AT_EPOCH":10026,"BSTAR":9.1803e-5,"MEAN_MOTION_DOT":2.264e-5,"MEAN_MOTION_DDOT":0},{"OBJECT_NAME":"STARLINK-31203","OBJECT_ID":"2024-019S","EPOCH":"2025-11-06T18:14:41.783712","MEAN_MOTION":15.27592581,"ECCENTRICITY":7.11e-5,"INCLINATION":42.9975,"RA_OF_ASC_NODE":219.5232,"ARG_OF_PERICENTER":180.5125,"MEAN_ANOMALY":179.5726,"EPHEMERIS_TYPE":0,"CLASSIFICATION_TYPE":"U","NORAD_CAT_ID":58869,"ELEMENT_SET_NO":999,"REV_AT_EPOCH":10032,"BSTAR":0.00022871,"MEAN_MOTION_DOT":6.039e-5,"MEAN_MOTION_DDOT":0},{"OBJECT_NAME":"STARLINK-31201","OBJECT_ID":"2024-019T","EPOCH":"2025-11-06T17:46:15.460608","MEAN_MOTION":15.27574796,"ECCENTRICITY":7.84e-5,"INCLINATION":43.0045,"RA_OF_ASC_NODE":222.874,"ARG_OF_PERICENTER":267.7701,"MEAN_ANOMALY":92.3061,"EPHEMERIS_TYPE":0,"CLASSIFICATION_TYPE":"U","NORAD_CAT_ID":58870,"ELEMENT_SET_NO":999,"REV_AT_EPOCH":10026,"BSTAR":0.00011072,"MEAN_MOTION_DOT":2.786e-5,"MEAN_MOTION_DDOT":0},{"OBJECT_NAME":"STARLINK-31214","OBJECT_ID":"2024-019U","EPOCH":"2025-11-06T18:04:45.047424","MEAN_MOTION":15.27589644,"ECCENTRICITY":9.41e-5,"INCLINATION":43.0022,"RA_OF_ASC_NODE":222.9578,"ARG_OF_PERICENTER":276.8586,"MEAN_ANOMALY":83.2159,"EPHEMERIS_TYPE":0,"CLASSIFICATION_TYPE":"U","NORAD_CAT_ID":58871,"ELEMENT_SET_NO":999,"REV_AT_EPOCH":10026,"BSTAR":0.00013101,"MEAN_MOTION_DOT":3.346e-5,"MEAN_MOTION_DDOT":0},{"OBJECT_NAME":"STARLINK-31215","OBJECT_ID":"2024-019V","EPOCH":"2025-11-06T18:08:26.443968","MEAN_MOTION":15.27589643,"ECCENTRICITY":6.72e-5,"INCLINATION":43.0015,"RA_OF_ASC_NODE":222.9884,"ARG_OF_PERICENTER":245.5495,"MEAN_ANOMALY":114.5286,"EPHEMERIS_TYPE":0,"CLASSIFICATION_TYPE":"U","NORAD_CAT_ID":58872,"ELEMENT_SET_NO":999,"REV_AT_EPOCH":10026,"BSTAR":0.00013869,"MEAN_MOTION_DOT":3.557e-5,"MEAN_MOTION_DDOT":0},{"OBJECT_NAME":"STARLINK-31177","OBJECT_ID":"2024-019W","EPOCH":"2025-11-06T18:01:02.146656","MEAN_MOTION":15.27605167,"ECCENTRICITY":8.4e-5,"INCLINATION":43.0033,"RA_OF_ASC_NODE":222.9467,"ARG_OF_PERICENTER":285.7756,"MEAN_ANOMALY":74.3003,"EPHEMERIS_TYPE":0,"CLASSIFICATION_TYPE":"U","NORAD_CAT_ID":58873,"ELEMENT_SET_NO":999,"REV_AT_EPOCH":10028,"BSTAR":0.00014589,"MEAN_MOTION_DOT":3.758e-5,"MEAN_MOTION_DDOT":0},{"OBJECT_NAME":"STARLINK-30945","OBJECT_ID":"2024-019X","EPOCH":"2025-11-06T18:49:09.164640","MEAN_MOTION":15.2758786,"ECCENTRICITY":7.22e-5,"INCLINATION":43.0047,"RA_OF_ASC_NODE":223.1863,"ARG_OF_PERICENTER":277.2357,"MEAN_ANOMALY":82.8413,"EPHEMERIS_TYPE":0,"CLASSIFICATION_TYPE":"U","NORAD_CAT_ID":58874,"ELEMENT_SET_NO":999,"REV_AT_EPOCH":10028,"BSTAR":8.8436e-5,"MEAN_MOTION_DOT":2.173e-5,"MEAN_MOTION_DDOT":0}]
